{"type": "FeatureCollection", "features": [ {"type": "Feature", "properties": {"norad_id": 66605, "name": "STARLINK-36052", "group": "last-30-days", "lat": -42.71485318287727, "lon": 17.11093824871603, "alt_km": 446.8600213709269, "timestamp": "2025-12-26T03:50:10.805592+00:00", "meta": {"OBJECT_NAME": "STARLINK-36052", "OBJECT_ID": "2025-270T", "EPOCH": "2025-12-25T17:21:34.257024", "MEAN_MOTION": 15.40746331, "ECCENTRICITY": 4.7e-05, "INCLINATION": 42.9964, "RA_OF_ASC_NODE": 117.3649, "ARG_OF_PERICENTER": 297.8013, "MEAN_ANOMALY": 62.2795, "EPHEMERIS_TYPE": 0, "CLASSIFICATION_TYPE": "U", "NORAD_CAT_ID": 66605, "ELEMENT_SET_NO": 999, "REV_AT_EPOCH": 635, "BSTAR": 0.0013973, "MEAN_MOTION_DOT": 0.00058604, "MEAN_MOTION_DDOT": 0}, "tle": {"line1": "1 66605U 25270T   25359.72331316  .00058604  00000+0  13973-2 0  9996", "line2": "2 66605  42.9964 117.3649 0000470 297.8013  62.2795 15.40746331  6350"}}, "geometry": {"type": "Point", "coordinates": [17.11093824871603, -42.71485318287727]}}, {"type": "Feature", "properties": {"norad_id": 66606, "name": "STARLINK-36063", "group": "last-30-days", "lat": -5.977025879960406, "lon": 108.18734439017207, "alt_km": 444.2580696547084, "timestamp": "2025-12-26T03:50:10.805604+00:00", "meta": {"OBJECT_NAME": "STARLINK-36063", "OBJECT_ID": "2025-270U", "EPOCH": "2025-12-25T20:00:01.999008", "MEAN_MOTION": 15.40640471, "ECCENTRICITY": 0.0001605, "INCLINATION": 43.0002, "RA_OF_ASC_NODE": 116.5202, "ARG_OF_PERICENTER": 276.0668, "MEAN_ANOMALY": 62.2137, "EPHEMERIS_TYPE": 0, "CLASSIFICATION_TYPE": "U", "NORAD_CAT_ID": 66606, "ELEMENT_SET_NO": 999, "REV_AT_EPOCH": 613, "BSTAR": 0.0020059, "MEAN_MOTION_DOT": 0.00084254, "MEAN_MOTION_DDOT": 0}, "tle": {"line1": "1 66606U 25270U   25359.83335647  .00084254  00000+0  20059-2 0  9993", "line2": "2 66606  43.0002 116.5202 0001605 276.0668  62.2137 15.40640471  6132"}}, "geometry": {"type": "Point", "coordinates": [108.18734439017207, -5.977025879960406]}}, {"type": "Feature", "properties": {"norad_id": 66607, "name": "STARLINK-35993", "group": "last-30-days", "lat": -42.60338964596751, "lon": 34.10736565087707, "alt_km": 446.1244802533811, "timestamp": "2025-12-26T03:50:10.805615+00:00", "meta": {"OBJECT_NAME": "STARLINK-35993", "OBJECT_ID": "2025-270V", "EPOCH": "2025-12-25T17:18:19.287648", "MEAN_MOTION": 15.40741183, "ECCENTRICITY": 0.0001625, "INCLINATION": 43.0008, "RA_OF_ASC_NODE": 117.3464, "ARG_OF_PERICENTER": 249.0774, "MEAN_ANOMALY": 110.9909, "EPHEMERIS_TYPE": 0, "CLASSIFICATION_TYPE": "U", "NORAD_CAT_ID": 66607, "ELEMENT_SET_NO": 999, "REV_AT_EPOCH": 625, "BSTAR": 0.0013956, "MEAN_MOTION_DOT": 0.00058522, "MEAN_MOTION_DDOT": 0}, "tle": {"line1": "1 66607U 25270V   25359.72105657  .00058522  00000+0  13956-2 0  9995", "line2": "2 66607  43.0008 117.3464 0001625 249.0774 110.9909 15.40741183  6251"}}, "geometry": {"type": "Point", "coordinates": [34.10736565087707, -42.60338964596751]}}, {"type": "Feature", "properties": {"norad_id": 66608, "name": "STARLINK-36036", "group": "last-30-days", "lat": 2.4902432920322926, "lon": 117.28298296313864, "alt_km": 443.3881750217206, "timestamp": "2025-12-26T03:50:10.805625+00:00", "meta": {"OBJECT_NAME": "STARLINK-36036", "OBJECT_ID": "2025-270W", "EPOCH": "2025-12-25T20:00:01.999008", "MEAN_MOTION": 15.40647312, "ECCENTRICITY": 0.0001586, "INCLINATION": 43.0003, "RA_OF_ASC_NODE": 116.4898, "ARG_OF_PERICENTER": 276.6566, "MEAN_ANOMALY": 74.0553, "EPHEMERIS_TYPE": 0, "CLASSIFICATION_TYPE": "U", "NORAD_CAT_ID": 66608, "ELEMENT_SET_NO": 999, "REV_AT_EPOCH": 613, "BSTAR": 0.0019666, "MEAN_MOTION_DOT": 0.00082596, "MEAN_MOTION_DDOT": 0}, "tle": {"line1": "1 66608U 25270W   25359.83335647  .00082596  00000+0  19666-2 0  9994", "line2": "2 66608  43.0003 116.4898 0001586 276.6566  74.0553 15.40647312  6130"}}, "geometry": {"type": "Point", "coordinates": [117.28298296313864, 2.4902432920322926]}}, {"type": "Feature", "properties": {"norad_id": 66609, "name": "STARLINK-36034", "group": "last-30-days", "lat": 19.00980797539285, "lon": 136.24587490922116, "alt_km": 441.4426062488801, "timestamp": "2025-12-26T03:50:10.805636+00:00", "meta": {"OBJECT_NAME": "STARLINK-36034", "OBJECT_ID": "2025-270X", "EPOCH": "2025-12-25T20:00:01.999008", "MEAN_MOTION": 15.40647869, "ECCENTRICITY": 0.0001604, "INCLINATION": 43.0001, "RA_OF_ASC_NODE": 116.4298, "ARG_OF_PERICENTER": 274.3007, "MEAN_ANOMALY": 101.2857, "EPHEMERIS_TYPE": 0, "CLASSIFICATION_TYPE": "U", "NORAD_CAT_ID": 66609, "ELEMENT_SET_NO": 999, "REV_AT_EPOCH": 613, "BSTAR": 0.0020027, "MEAN_MOTION_DOT": 0.00084135, "MEAN_MOTION_DDOT": 0}, "tle": {"line1": "1 66609U 25270X   25359.83335647  .00084135  00000+0  20027-2 0  9999", "line2": "2 66609  43.0001 116.4298 0001604 274.3007 101.2857 15.40647869  6136"}}, "geometry": {"type": "Point", "coordinates": [136.24587490922116, 19.00980797539285]}}, {"type": "Feature", "properties": {"norad_id": 66610, "name": "STARLINK-35680", "group": "last-30-days", "lat": -35.549009885116405, "lon": 64.68856289671056, "alt_km": 446.1185335578184, "timestamp": "2025-12-26T03:50:10.805646+00:00", "meta": {"OBJECT_NAME": "STARLINK-35680", "OBJECT_ID": "2025-270Y", "EPOCH": "2025-12-25T20:00:01.999008", "MEAN_MOTION": 15.40644122, "ECCENTRICITY": 0.0001589, "INCLINATION": 43.0002, "RA_OF_ASC_NODE": 116.641, "ARG_OF_PERICENTER": 272.3177, "MEAN_ANOMALY": 16.1963, "EPHEMERIS_TYPE": 0, "CLASSIFICATION_TYPE": "U", "NORAD_CAT_ID": 66610, "ELEMENT_SET_NO": 999, "REV_AT_EPOCH": 613, "BSTAR": 0.0020151, "MEAN_MOTION_DOT": 0.00084653, "MEAN_MOTION_DDOT": 0}, "tle": {"line1": "1 66610U 25270Y   25359.83335647  .00084653  00000+0  20151-2 0  9994", "line2": "2 66610  43.0002 116.6410 0001589 272.3177  16.1963 15.40644122  6136"}}, "geometry": {"type": "Point", "coordinates": [64.68856289671056, -35.549009885116405]}}, {"type": "Feature", "properties": {"norad_id": 66611, "name": "STARLINK-35583", "group": "last-30-days", "lat": -22.11378657444876, "lon": 88.84226739505307, "alt_km": 445.40095155902054, "timestamp": "2025-12-26T03:50:10.805656+00:00", "meta": {"OBJECT_NAME": "STARLINK-35583", "OBJECT_ID": "2025-270Z", "EPOCH": "2025-12-25T17:05:26.221920", "MEAN_MOTION": 15.40757863, "ECCENTRICITY": 6.6e-05, "INCLINATION": 43.0004, "RA_OF_ASC_NODE": 117.2753, "ARG_OF_PERICENTER": 326.6033, "MEAN_ANOMALY": 33.4782, "EPHEMERIS_TYPE": 0, "CLASSIFICATION_TYPE": "U", "NORAD_CAT_ID": 66611, "ELEMENT_SET_NO": 999, "REV_AT_EPOCH": 646, "BSTAR": 0.0014093, "MEAN_MOTION_DOT": 0.00059138, "MEAN_MOTION_DDOT": 0}, "tle": {"line1": "1 66611U 25270Z   25359.71210905  .00059138  00000+0  14093-2 0  9999", "line2": "2 66611  43.0004 117.2753 0000660 326.6033  33.4782 15.40757863  6463"}}, "geometry": {"type": "Point", "coordinates": [88.84226739505307, -22.11378657444876]}}, {"type": "Feature", "properties": {"norad_id": 66612, "name": "STARLINK-36039", "group": "last-30-days", "lat": 41.79169135328497, "lon": -171.11774639109092, "alt_km": 437.82327330086537, "timestamp": "2025-12-26T03:50:10.805666+00:00", "meta": {"OBJECT_NAME": "STARLINK-36039", "OBJECT_ID": "2025-270AA", "EPOCH": "2025-12-25T01:03:04.009824", "MEAN_MOTION": 15.40706418, "ECCENTRICITY": 0.00011468, "INCLINATION": 42.9994, "RA_OF_ASC_NODE": 121.733, "ARG_OF_PERICENTER": 270.7369, "MEAN_ANOMALY": 89.3356, "EPHEMERIS_TYPE": 0, "CLASSIFICATION_TYPE": "U", "NORAD_CAT_ID": 66612, "ELEMENT_SET_NO": 999, "REV_AT_EPOCH": 624, "BSTAR": 0.0010340794, "MEAN_MOTION_DOT": 0.00043146, "MEAN_MOTION_DDOT": 0}, "tle": {"line1": "1 66612U 25270AA  25359.04379641  .00043146  00000+0  10341-2 0  9993", "line2": "2 66612  42.9994 121.7330 0001146 270.7369  89.3356 15.40706418  6245"}}, "geometry": {"type": "Point", "coordinates": [-171.11774639109092, 41.79169135328497]}}, {"type": "Feature", "properties": {"norad_id": 66613, "name": "STARLINK-36037", "group": "last-30-days", "lat": 41.66551317774725, "lon": -137.51738331110562, "alt_km": 437.2397584295313, "timestamp": "2025-12-26T03:50:10.805676+00:00", "meta": {"OBJECT_NAME": "STARLINK-36037", "OBJECT_ID": "2025-270AB", "EPOCH": "2025-12-25T08:43:22.456704", "MEAN_MOTION": 15.40747703, "ECCENTRICITY": 3.47e-05, "INCLINATION": 42.9973, "RA_OF_ASC_NODE": 119.8307, "ARG_OF_PERICENTER": 326.0918, "MEAN_ANOMALY": 33.9916, "EPHEMERIS_TYPE": 0, "CLASSIFICATION_TYPE": "U", "NORAD_CAT_ID": 66613, "ELEMENT_SET_NO": 999, "REV_AT_EPOCH": 629, "BSTAR": 0.00097518, "MEAN_MOTION_DOT": 0.00040714, "MEAN_MOTION_DDOT": 0}, "tle": {"line1": "1 66613U 25270AB  25359.36345436  .00040714  00000+0  97518-3 0  9994", "line2": "2 66613  42.9973 119.8307 0000347 326.0918  33.9916 15.40747703  6296"}}, "geometry": {"type": "Point", "coordinates": [-137.51738331110562, 41.66551317774725]}}, {"type": "Feature", "properties": {"norad_id": 66614, "name": "STARLINK-36040", "group": "last-30-days", "lat": -22.899866478415397, "lon": -38.07560082611928, "alt_km": 445.88728499473564, "timestamp": "2025-12-26T03:50:10.805686+00:00", "meta": {"OBJECT_NAME": "STARLINK-36040", "OBJECT_ID": "2025-270AC", "EPOCH": "2025-12-25T08:14:20.544576", "MEAN_MOTION": 15.40744083, "ECCENTRICITY": 0.0001175, "INCLINATION": 42.9964, "RA_OF_ASC_NODE": 119.6723, "ARG_OF_PERICENTER": 302.2675, "MEAN_ANOMALY": 57.8067, "EPHEMERIS_TYPE": 0, "CLASSIFICATION_TYPE": "U", "NORAD_CAT_ID": 66614, "ELEMENT_SET_NO": 999, "REV_AT_EPOCH": 613, "BSTAR": 0.0012628, "MEAN_MOTION_DOT": 0.00052891, "MEAN_MOTION_DDOT": 0}, "tle": {"line1": "1 66614U 25270AC  25359.34329334  .00052891  00000+0  12628-2 0  9999", "line2": "2 66614  42.9964 119.6723 0001175 302.2675  57.8067 15.40744083  6136"}}, "geometry": {"type": "Point", "coordinates": [-38.07560082611928, -22.899866478415397]}}]}